H1 CPF  1  SGF 2022  1 22  2  5221 larets    
H2  0304206 5557    27944 2022  1 21  0  0  0 2022  1 26 23 57  0   180 1 1  0 0 0
H9
10 0 59601  66960.00000  0  -2352028.626   3836513.357  -5447333.472
10 0 59601  67140.00000  0  -2516791.524   4816228.030  -4512776.640
10 0 59601  67320.00000  0  -2566703.641   5623866.915  -3413170.575
10 0 59601  67500.00000  0  -2504712.590   6226712.331  -2188479.625
10 0 59601  67680.00000  0  -2338616.491   6599581.248   -883440.917
10 0 59601  67860.00000  0  -2080599.861   6725954.913    454077.191
10 0 59601  68040.00000  0  -1746570.961   6598772.343   1774873.980
10 0 59601  68220.00000  0  -1355325.234   6220820.838   3030305.024
10 0 59601  68400.00000  0   -927582.589   5604692.050   4174144.814
10 0 59601  68580.00000  0   -484958.401   4772325.772   5164341.431
10 0 59601  68760.00000  0    -48916.539   3754158.124   5964591.577
10 0 59601  68940.00000  0    360238.565   2587930.971   6545662.639
10 0 59601  69120.00000  0    724278.973   1317224.694   6886430.874
10 0 59601  69300.00000  0   1027844.283    -10219.621   6974606.480
10 0 59601  69480.00000  0   1259075.854  -1344318.426   6807136.791
10 0 59601  69660.00000  0   1410073.237  -2634544.971   6390291.010
10 0 59601  69840.00000  0   1477158.956  -3831850.583   5739422.180
10 0 59601  70020.00000  0   1460943.156  -4890540.542   4878409.782
10 0 59601  70200.00000  0   1366191.470  -5770034.376   3838802.816
10 0 59601  70380.00000  0   1201502.566  -6436457.372   2658683.259
10 0 59601  70560.00000  0    978805.732  -6863985.626   1381272.252
10 0 59601  70740.00000  0    712701.195  -7035883.177     53336.014
10 0 59601  70920.00000  0    419674.953  -6945181.645  -1276557.182
10 0 59601  71100.00000  0    117227.056  -6594950.807  -2559855.452
10 0 59601  71280.00000  0   -177033.412  -5998153.349  -3749821.158
10 0 59601  71460.00000  0   -446282.699  -5177107.511  -4803238.190
10 0 59601  71640.00000  0   -675323.358  -4162584.943  -5681959.774
10 0 59601  71820.00000  0   -851330.418  -2992601.317  -6354240.431
10 0 59601  72000.00000  0   -964470.741  -1710959.619  -6795819.699
10 0 59601  72180.00000  0  -1008373.234   -365608.390  -6990734.153
10 0 59601  72360.00000  0   -980434.752    993124.935  -6931849.364
10 0 59601  72540.00000  0   -881950.491   2314371.228  -6621106.966
10 0 59601  72720.00000  0   -718066.329   3548578.299  -6069487.627
10 0 59601  72900.00000  0   -497551.837   4649347.301  -5296686.029
10 0 59601  73080.00000  0   -232397.538   5575190.110  -4330487.642
10 0 59601  73260.00000  0     62750.245   6291145.387  -3205848.282
10 0 59601  73440.00000  0    371299.127   6770180.970  -1963686.111
10 0 59601  73620.00000  0    675536.810   6994312.435   -649416.497
10 0 59601  73800.00000  0    957535.542   6955370.695    688726.115
10 0 59601  73980.00000  0   1200088.553   6655362.129   2001510.967
10 0 59601  74160.00000  0   1387622.174   6106393.455   3240590.616
10 0 59601  74340.00000  0   1507035.152   5330168.439   4360348.662
10 0 59601  74520.00000  0   1548424.001   4357078.392   5319634.043
10 0 59601  74700.00000  0   1505650.450   3224930.948   6083299.069
10 0 59601  74880.00000  0   1376725.558   1977403.180   6623470.409
10 0 59601  75060.00000  0   1163997.936    662296.816   6920534.119
10 0 59601  75240.00000  0    874138.560   -670333.388   6963803.015
10 0 59601  75420.00000  0    517924.844  -1970099.345   6751865.722
10 0 59601  75600.00000  0    109829.986  -3188193.052   6292614.614
10 0 59601  75780.00000  0   -332567.167  -4279226.549   5602945.781
10 0 59601  75960.00000  0   -789324.941  -5202927.794   4708145.930
10 0 59601  76140.00000  0  -1239011.191  -5925650.632   3640994.730
10 0 59601  76320.00000  0  -1659676.415  -6421643.479   2440579.954
10 0 59601  76500.00000  0  -2029880.073  -6674005.815   1150864.567
10 0 59601  76680.00000  0  -2329722.749  -6675291.323   -180942.068
10 0 59601  76860.00000  0  -2541826.125  -6427722.126  -1506146.367
10 0 59601  77040.00000  0  -2652212.930  -5943005.516  -2776385.353
10 0 59601  77220.00000  0  -2651044.449  -5241765.546  -3945416.570
10 0 59601  77400.00000  0  -2533177.056  -4352620.202  -4970804.747
10 0 59601  77580.00000  0  -2298513.225  -3310963.388  -5815433.012
10 0 59601  77760.00000  0  -1952138.631  -2157521.203  -6448794.237
10 0 59601  77940.00000  0  -1504240.594   -936745.501  -6848030.559
10 0 59601  78120.00000  0   -969814.349    304888.453  -6998695.325
10 0 59601  78300.00000  0   -368171.747   1520616.145  -6895233.076
10 0 59601  78480.00000  0    277736.020   2665100.447  -6541178.926
10 0 59601  78660.00000  0    942164.125   3696089.612  -5949074.794
10 0 59601  78840.00000  0   1597572.037   4575972.639  -5140090.734
10 0 59601  79020.00000  0   2215739.883   5273177.591  -4143348.518
10 0 59601  79200.00000  0   2768967.196   5763364.784  -2994949.116
10 0 59601  79380.00000  0   3231304.757   6030355.679  -1736717.366
10 0 59601  79560.00000  0   3579764.301   6066747.814   -414694.580
10 0 59601  79740.00000  0   3795438.620   5874169.496    922572.553
10 0 59601  79920.00000  0   3864467.836   5463149.106   2225869.737
10 0 59601  80100.00000  0   3778799.944   4852604.112   3447194.245
10 0 59601  80280.00000  0   3536699.121   4068970.464   4541592.462
10 0 59601  80460.00000  0   3142975.523   3145020.112   5468861.967
10 0 59601  80640.00000  0   2608919.144   2118436.102   6195047.612
10 0 59601  80820.00000  0   1951958.607   1030221.572   6693665.616
10 0 59601  81000.00000  0   1195061.833    -76977.560   6946632.121
10 0 59601  81180.00000  0    365903.646  -1160561.395   6944875.588
10 0 59601  81360.00000  0   -504165.454  -2179622.826   6688630.840
10 0 59601  81540.00000  0  -1381315.954  -3096495.366   6187403.843
10 0 59601  81720.00000  0  -2230553.215  -3878145.323   5459614.665
10 0 59601  81900.00000  0  -3017109.800  -4497369.845   4531942.778
10 0 59601  82080.00000  0  -3707879.527  -4933765.503   3438373.971
10 0 59601  82260.00000  0  -4272820.014  -5174419.989   2218964.076
10 0 59601  82440.00000  0  -4686258.881  -5214298.505    918368.282
10 0 59601  82620.00000  0  -4928047.959  -5056305.595   -415814.083
10 0 59601  82800.00000  0  -4984505.125  -4711016.397  -1734814.339
10 0 59601  82980.00000  0  -4849091.984  -4196089.430  -2990514.574
10 0 59601  83160.00000  0  -4522790.746  -3535391.252  -4137225.479
10 0 59601  83340.00000  0  -4014170.265  -2757890.333  -5133343.204
10 0 59601  83520.00000  0  -3339146.845  -1896379.882  -5942826.740
10 0 59601  83700.00000  0  -2520457.377   -986092.704  -6536447.464
10 0 59601  83880.00000  0  -1586872.722    -63269.707  -6892780.268
10 0 59601  84060.00000  0   -572184.317    836258.467  -6998914.208
10 0 59601  84240.00000  0    485993.991   1678427.639  -6850883.150
10 0 59601  84420.00000  0   1547580.055   2432199.512  -6453818.407
10 0 59601  84600.00000  0   2571506.047   3070692.778  -5821815.263
10 0 59601  84780.00000  0   3517284.591   3572149.804  -4977498.811
10 0 59601  84960.00000  0   4346606.771   3920705.584  -3951295.685
10 0 59601  85140.00000  0   5024921.355   4106931.412  -2780412.285
10 0 59601  85320.00000  0   5522921.487   4128118.864  -1507530.535
10 0 59601  85500.00000  0   5817862.171   3988283.746   -179259.799
10 0 59601  85680.00000  0   5894636.049   3697880.784   1155599.053
10 0 59601  85860.00000  0   5746544.651   3273235.904   2447904.553
10 0 59601  86040.00000  0   5375712.429   2735721.111   3650056.293
10 0 59601  86220.00000  0   4793116.753   2110717.265   4717816.262
10 0 59602      0.00000  0   4018234.122   1426420.675   5611977.205
10 0 59602    180.00000  0   3078333.219    712563.792   6299814.701
10 0 59602    360.00000  0   2007444.894      -888.442   6756263.848
10 0 59602    540.00000  0    845077.780   -684999.194   6964790.235
10 0 59602    720.00000  0   -365275.359  -1313033.182   6917950.933
10 0 59602    900.00000  0  -1577786.603  -1861500.126   6617625.417
10 0 59602   1080.00000  0  -2746032.564  -2311030.049   6074920.179
10 0 59602   1260.00000  0  -3824769.356  -2647053.356   5309766.837
10 0 59602   1440.00000  0  -4771701.131  -2860274.190   4350214.096
10 0 59602   1620.00000  0  -5549162.989  -2946913.115   3231414.276
10 0 59602   1800.00000  0  -6125647.125  -2908708.425   1994346.427
10 0 59602   1980.00000  0  -6477112.231  -2752682.359    684312.571
10 0 59602   2160.00000  0  -6588005.996  -2490677.213   -650747.230
10 0 59602   2340.00000  0  -6451945.234  -2138682.530  -1962045.062
10 0 59602   2520.00000  0  -6072015.681  -1715990.569  -3201763.619
10 0 59602   2700.00000  0  -5460682.164  -1244227.726  -4324815.695
10 0 59602   2880.00000  0  -4639325.515   -746313.120  -5290475.179
10 0 59602   3060.00000  0  -3637435.027   -245395.987  -6063819.385
10 0 59602   3240.00000  0  -2491500.473    236177.043  -6616933.514
10 0 59602   3420.00000  0  -1243662.177    677818.664  -6929849.551
10 0 59602   3600.00000  0     59827.669   1061545.262  -6991209.428
10 0 59602   3780.00000  0   1370279.639   1372685.633  -6798647.030
10 0 59602   3960.00000  0   2638338.403   1600432.585  -6358894.256
10 0 59602   4140.00000  0   3815809.583   1738222.959  -5687591.769
10 0 59602   4320.00000  0   4857478.766   1783929.835  -4808801.530
10 0 59602   4500.00000  0   5722870.492   1739861.456  -3754227.002
10 0 59602   4680.00000  0   6377879.225   1612562.262  -2562138.543
10 0 59602   4860.00000  0   6796197.126   1412418.725  -1276027.886
10 0 59602   5040.00000  0   6960463.021   1153083.877     56977.455
10 0 59602   5220.00000  0   6863054.995    850742.776   1387879.225
10 0 59602   5400.00000  0   6506478.625    523258.454   2667670.520
10 0 59602   5580.00000  0   5903322.890    189239.185   3849214.915
10 0 59602   5760.00000  0   5075778.250   -132918.856   4889045.111
10 0 59602   5940.00000  0   4054753.121   -425958.788   5748997.835
99
